{
    "links": {
        "self": "http://www.neowsapp.com/rest/v1/neo/3654058?api_key=iIulBulltgU6a56xZRHN4H3l9WmuAYTsLGpBGhQ2"
    },
    "id": "3654058",
    "neo_reference_id": "3654058",
    "name": "(2013 WS67)",
    "designation": "2013 WS67",
    "nasa_jpl_url": "http://ssd.jpl.nasa.gov/sbdb.cgi?sstr=3654058",
    "absolute_magnitude_h": 23.3,
    "estimated_diameter": {
        "kilometers": {
            "estimated_diameter_min": 0.058150704,
            "estimated_diameter_max": 0.130028927
        },
        "meters": {
            "estimated_diameter_min": 58.1507039646,
            "estimated_diameter_max": 130.0289270043
        },
        "miles": {
            "estimated_diameter_min": 0.0361331611,
            "estimated_diameter_max": 0.0807962044
        },
        "feet": {
            "estimated_diameter_min": 190.7831555951,
            "estimated_diameter_max": 426.6041048727
        }
    },
    "is_potentially_hazardous_asteroid": false,
    "close_approach_data": [
        {
            "close_approach_date": "1965-11-23",
            "close_approach_date_full": "1965-Nov-23 15:17",
            "epoch_date_close_approach": -129544980000,
            "relative_velocity": {
                "kilometers_per_second": "18.8757417174",
                "kilometers_per_hour": "67952.670182807",
                "miles_per_hour": "42223.1466477559"
            },
            "miss_distance": {
                "astronomical": "0.0889073931",
                "lunar": "34.5849759159",
                "kilometers": "13300356.635012697",
                "miles": "8264458.3849693386"
            },
            "orbiting_body": "Earth"
        },
        {
            "close_approach_date": "2013-11-13",
            "close_approach_date_full": "2013-Nov-13 07:20",
            "epoch_date_close_approach": 1384327200000,
            "relative_velocity": {
                "kilometers_per_second": "15.2712729374",
                "kilometers_per_hour": "54976.5825747764",
                "miles_per_hour": "34160.3104337548"
            },
            "miss_distance": {
                "astronomical": "0.1092924354",
                "lunar": "42.5147573706",
                "kilometers": "16349915.542952598",
                "miles": "10159366.4223099324"
            },
            "orbiting_body": "Earth"
        }
    ],
    "orbital_data": {
        "orbit_id": "6",
        "orbit_determination_date": "2017-04-06 08:43:26",
        "first_observation_date": "2013-11-29",
        "last_observation_date": "2013-12-07",
        "data_arc_in_days": 8,
        "observations_used": 21,
        "orbit_uncertainty": "8",
        "minimum_orbit_intersection": ".0371468",
        "jupiter_tisserand_invariant": "3.058",
        "epoch_osculation": "2456628.5",
        "eccentricity": ".6768920047411121",
        "semi_major_axis": "2.5131402732669",
        "inclination": "15.20713018012009",
        "ascending_node_longitude": "66.5235105250398",
        "orbital_period": "1455.202799681949",
        "perihelion_distance": ".8120157154996417",
        "perihelion_argument": "294.3743770491959",
        "aphelion_distance": "4.214264831034157",
        "perihelion_time": "2456573.510706789214",
        "mean_anomaly": "13.60370221951857",
        "mean_motion": ".2473881991421966",
        "equinox": "J2000",
        "orbit_class": {
            "orbit_class_type": "APO",
            "orbit_class_description": "Near-Earth asteroid orbits which cross the Earth’s orbit similar to that of 1862 Apollo",
            "orbit_class_range": "a (semi-major axis) > 1.0 AU; q (perihelion) < 1.017 AU"
        }
    },
    "is_sentry_object": false
}